satname,norad_id,inclination_deg,eccentricity,mean_motion_rev_per_day,perigee_km,apogee_km,l1,l2
STARLINK-1506,45747,53.0644,0.000203,15.21848185,498.86974242856286,501.6623740702116,1 45747U 20038T   25317.46043032  .00019375  00000+0  85362-3 0  9991,2 45747  53.0644  18.3209 0002030 301.3043  58.7754 15.21848185298966
STARLINK-1464,45751,53.0571,0.0001485,15.0637356,546.2641676207959,548.3210202101891,1 45751U 20038X   25317.45871553 -.00012749  00000+0 -83914-3 0  9993,2 45751  53.0571  18.3983 0001485  78.6734 281.4422 15.06373560298963
STARLINK-1477,45754,53.0553,0.0002582,15.07488079,542.0914940451621,545.6660229828594,1 45754U 20038AA  25317.46714972  .00014572  00000+0  96639-3 0  9990,2 45754  53.0553  18.2927 0002582  27.2051 332.9073 15.07488079298961
STARLINK-1478,45755,53.0545,0.0001766,15.06395628,546.0019385993046,548.4479764427015,1 45755U 20038AB  25317.55822676  .00015314  00000+0  10448-2 0  9990,2 45755  53.0545  17.9515 0001766  92.1840 267.9351 15.06395628298964
STARLINK-1484,45756,53.0154,0.0003631,15.64064272,373.4788389269661,378.38364328365697,1 45756U 20038AC  25317.91670139  .00063566  00000+0  65970-3 0  9999,2 45756  53.0154 276.6179 0003631  67.9588  75.9490 15.64064272  5995
STARLINK-1493,45759,53.0549,0.0001961,15.06390356,545.8830489185139,548.5991822154392,1 45759U 20038AF  25317.54717514  .00017699  00000+0  12044-2 0  9999,2 45759  53.0549  18.0012 0001961  86.3870 273.7343 15.06390356298960
STARLINK-1494,45760,53.0548,0.0003886,15.5266335,406.3160360934535,411.5909628296349,1 45760U 20038AG  25317.54514433  .00075723  00000+0  12036-2 0  9999,2 45760  53.0548 358.9067 0003886  46.4631 313.6700 15.52663350299248
STARLINK-1502,45764,53.0558,0.0001857,15.06348926,546.0820305186353,548.6541631115933,1 45764U 20038AL  25317.44763728 -.00028196  00000+0 -18840-2 0  9998,2 45764  53.0558  18.4478 0001857  73.5649 286.5544 15.06348926298963
STARLINK-1470,45772,53.0514,0.0005261,15.18682646,506.1972056239729,513.4447149898078,1 45772U 20038AU  25317.46648742  .00037500  00000+0  17918-2 0  9999,2 45772  53.0514 349.7591 0005261 317.5839  42.4748 15.18682646299368
STARLINK-1482,45773,53.0551,0.0001322,15.06323543,546.5303354839689,548.3614596020789,1 45773U 20038AV  25317.54533586 -.00000952  00000+0 -45161-4 0  9994,2 45773  53.0551 358.0101 0001322  83.9290 276.1850 15.06323543299252
STARLINK-1496,45780,53.0546,0.0001213,15.06341027,546.5522408813122,548.2323742913322,1 45780U 20038BC  25317.37945257  .00005267  00000+0  37283-3 0  9992,2 45780  53.0546 358.7543 0001213  75.6912 284.4212 15.06341027299216
STARLINK-1497,45781,53.0381,0.0006441,15.58136032,388.6905418300912,397.41318732544005,1 45781U 20038BD  25317.91670139  .00056712  00000+0  74015-3 0  9992,2 45781  53.0381 296.9592 0006441   3.5318 323.0261 15.58136032  5910
STARLINK-1510,45784,53.0342,0.0004502,15.75999258,338.76386846542937,344.8144899972094,1 45784U 20038BG  25317.91670139  .00220844  00000+0  13609-2 0  9995,2 45784  53.0342 271.5197 0004502  97.7847 187.5796 15.75999258  6012
STARLINK-1513,45786,53.0563,0.0001415,15.06402089,546.2252195465489,548.1850913765456,1 45786U 20038BJ  25317.40894157  .00001610  00000+0  12698-3 0  9995,2 45786  53.0563 358.6247 0001415  91.5453 268.5698 15.06402089299231
STARLINK-1522,46027,53.0542,9.82e-05,15.0636424,546.641079364811,548.0012393473089,1 46027U 20055A   25317.65499225 -.00009004  00000+0 -58692-3 0  9998,2 46027  53.0542 287.5177 0000982  89.2592 270.8510 15.06364240291399
STARLINK-1523,46028,53.0535,0.0001228,15.06359155,546.4862966332903,548.1871929850158,1 46028U 20055B   25317.33800103 -.00020063  00000+0 -13333-2 0  9995,2 46028  53.0535 288.9429 0001228  80.3795 279.7333 15.06359155291365
STARLINK-1526,46029,53.0568,0.0001302,15.06405093,546.2942703208655,548.0976270206993,1 46029U 20055C   25317.72871363  .00024533  00000+0  16600-2 0  9999,2 46029  53.0568 287.1843 0001302  83.1808 276.9329 15.06405093291415
STARLINK-1555,46032,53.0546,0.0001202,15.06397961,546.3853795388322,548.0502348344808,1 46032U 20055F   25317.64760631  .00001098  00000+0  92571-4 0  9993,2 46032  53.0546 287.5503 0001202  94.6043 265.5083 15.06397961291403
STARLINK-1556,46033,53.0545,0.0001489,15.06366177,546.2840226655835,548.3464223374431,1 46033U 20055G   25317.36379550 -.00021943  00000+0 -14601-2 0  9998,2 46033  53.0545 288.8250 0001489  98.1252 261.9906 15.06366177291335
STARLINK-1557,46034,53.0524,0.0001693,15.06399593,546.0403436128963,548.3852670569831,1 46034U 20055H   25317.69921258 -.00000922  00000+0 -42995-4 0  9996,2 46034  53.0524 287.3188 0001693  92.3711 267.7472 15.06399593291385
STARLINK-1558,46035,53.0539,0.0001095,15.06348105,546.612270121559,548.1289562888505,1 46035U 20055J   25317.64024420 -.00014982  00000+0 -99040-3 0  9990,2 46035  53.0539 287.5853 0001095  91.5325 268.5789 15.06348105291407
STARLINK-1560,46036,53.0546,0.000122,15.06338893,546.5539330499496,548.2437637969642,1 46036U 20055K   25317.62550662  .00006716  00000+0  47010-3 0  9995,2 46036  53.0546 287.6532 0001220  93.3991 266.7138 15.06338893291401
STARLINK-1567,46038,53.0536,0.0001576,15.06422782,546.0503113407758,548.2331591981338,1 46038U 20055M   25317.30480613  .00007773  00000+0  53979-3 0  9995,2 46038  53.0536 289.0875 0001576 102.1189 257.9976 15.06422782291346
STARLINK-1569,46039,53.0546,0.0001228,15.06360595,546.4818835867427,548.1827788544906,1 46039U 20055N   25317.64393160 -.00010417  00000+0 -68218-3 0  9996,2 46039  53.0546 287.5685 0001228  89.2340 270.8790 15.06360595291394
STARLINK-1582,46043,53.0546,0.0001274,15.06361356,546.4476942688707,548.2123032601557,1 46043U 20055S   25317.65131524 -.00010168  00000+0 -66539-3 0  9993,2 46043  53.0546 287.5353 0001274  88.1993 271.9142 15.06361356291393
STARLINK-1591,46045,53.0547,0.0002313,15.06389883,545.6407249662552,548.8444055531454,1 46045U 20055U   25317.61075576 -.00005496  00000+0 -35037-3 0  9992,2 46045  53.0547 287.7138 0002313  74.8187 285.3057 15.06389883291378
STARLINK-1524,46047,53.0563,0.0002199,15.0638731,545.7275585330881,548.7733439341409,1 46047U 20055W   25317.63011419 -.00002536  00000+0 -15144-3 0  9991,2 46047  53.0563 277.6290 0002199  86.5556 273.5685 15.06387310291534
STARLINK-1527,46048,53.0545,0.0002116,15.06410621,545.7136094273073,548.6444031611718,1 46048U 20055X   25317.62641891  .00005886  00000+0  41363-3 0  9995,2 46048  53.0545 277.6469 0002116  80.6744 279.4484 15.06410621291518
